OBJECT_NAME,OBJECT_ID,EPOCH,MEAN_MOTION,ECCENTRICITY,INCLINATION,RA_OF_ASC_NODE,ARG_OF_PERICENTER,MEAN_ANOMALY,EPHEMERIS_TYPE,CLASSIFICATION_TYPE,NORAD_CAT_ID,ELEMENT_SET_NO,REV_AT_EPOCH,BSTAR,MEAN_MOTION_DOT,MEAN_MOTION_DDOT
ONEWEB-0597,2022-166X,2026-06-27T04:53:35.642400,13.21827834,.00019984,87.9247,241.9943,94.6927,265.4435,0,U,54663,999,17286,.15850667E-3,.78E-6,0
ONEWEB-0600,2022-166Y,2026-06-27T06:15:57.760416,13.21824885,.00018172,87.9248,241.9743,98.4285,261.7055,0,U,54664,999,17284,-.12285205E-3,-.38E-6,0
ONEWEB-0601,2022-166Z,2026-06-27T04:14:48.938784,13.21822465,.00019906,87.9246,242.0073,90.8541,269.2821,0,U,54665,999,17302,.15600556E-2,.657E-5,0
ONEWEB-0602,2022-166AA,2026-06-27T05:14:10.663872,13.21827437,.00017826,87.9245,242.0049,98.9513,261.1822,0,U,54666,999,17287,.67144948E-4,.41E-6,0
ONEWEB-0603,2022-166AB,2026-06-27T05:22:39.990144,13.21827076,.0001976,87.9255,241.9617,95.9284,264.2075,0,U,54667,999,17280,.22315252E-3,.105E-5,0
ONEWEB-0604,2022-166AC,2026-06-27T05:05:40.696512,13.21828337,.00020721,87.9256,241.9798,100.3084,259.8284,0,U,54668,999,17276,.16482848E-4,.2E-6,0
ONEWEB-0605,2022-166AD,2026-06-27T04:56:01.324032,13.21827583,.00023707,87.9248,241.9936,83.5620,276.5784,0,U,54669,999,17283,.149256E-3,.75E-6,0
ONEWEB-0606,2022-166AE,2026-06-27T05:27:28.535040,13.21837947,.0002028,87.9211,241.9987,105.9043,254.2315,0,U,54670,999,17289,.3512586E-2,.1464E-4,0
ONEWEB-0607,2022-166AF,2026-06-27T04:39:04.237056,13.21825185,.00019327,87.9254,241.9799,95.2540,264.8814,0,U,54671,999,17286,.26865302E-3,.124E-5,0
ONEWEB-0608,2022-166AG,2026-06-27T04:48:42.922656,13.21828730,.00020737,87.9259,241.9758,83.2364,276.9006,0,U,54672,999,17287,.20291653E-3,.97E-6,0
ONEWEB-0610,2022-166AH,2026-06-27T04:19:41.459808,13.21825541,.00018014,87.9247,241.9931,81.1140,279.0197,0,U,54673,999,17277,.1038512E-3,.56E-6,0
ONEWEB-0611,2022-166AJ,2026-06-27T04:09:58.434336,13.21825956,.0002145,87.9249,241.9903,101.3527,258.7848,0,U,54674,999,17276,.21011555E-3,.1E-5,0
ONEWEB-0612,2022-166AK,2026-06-27T04:29:23.089056,13.21826177,.000203,87.9260,241.9842,93.5685,266.5681,0,U,54675,999,17275,.12293482E-3,.64E-6,0
ONEWEB-0615,2022-166AL,2026-06-27T04:00:18.406080,13.21827600,.00020333,87.9251,242.0021,105.5612,254.5747,0,U,54676,999,17276,.1330328E-3,.68E-6,0
ONEWEB-0655,2022-166AM,2026-06-27T05:15:23.680512,13.21827553,.00017969,87.9248,241.9926,97.4992,262.6346,0,U,54677,999,17276,.10942836E-3,.58E-6,0
ONEWEB-0659,2022-166AN,2026-06-27T03:50:38.712192,13.21852683,.00022359,87.9247,242.0041,98.0636,262.0752,0,U,54678,999,17284,-.20440113E-3,-.71E-6,0
ONEWEB-0685,2022-166AP,2026-06-27T05:39:30.816576,13.21847332,.00019074,87.9244,241.9809,87.8613,272.2739,0,U,54679,999,17274,-.22551538E-3,-.8E-6,0
ONEWEB-0712,2022-166AQ,2026-06-27T04:01:21.885024,13.16594924,.00016111,87.9091,226.7929,99.1963,260.9350,0,U,54680,999,17337,.32251947E-4,.25E-6,0
ONEWEB-0714,2022-166AR,2026-06-27T05:46:53.450688,13.21825066,.0001797,87.9248,241.9777,103.0036,257.1299,0,U,54681,999,17286,.49212736E-4,.33E-6,0
ONEWEB-0532,2023-004A,2026-06-27T04:59:26.067840,13.17647754,.00022001,87.9131,3.8706,85.7176,274.4207,0,U,55140,999,16890,-.10530268E-3,-.28E-6,0
ONEWEB-0533,2023-004B,2026-06-27T05:10:41.264832,13.12445262,.00017339,87.8947,348.6757,86.8912,273.2415,0,U,55141,999,16937,.33167485E-3,.132E-5,0
ONEWEB-0541,2023-004C,2026-06-27T06:05:00.087936,13.11414268,.00019907,87.8890,19.0546,90.8959,269.2397,0,U,55142,999,16726,.57444519E-3,.216E-5,0
ONEWEB-0543,2023-004D,2026-06-27T04:18:35.231616,13.18685408,.0001643,87.9167,333.4809,98.6719,261.4599,0,U,55143,999,17101,-.17276518E-3,-.55E-6,0
ONEWEB-0544,2023-004E,2026-06-27T04:08:52.375488,13.18685905,.00018408,87.9168,333.4818,101.6260,258.5079,0,U,55144,999,17101,-.41998172E-4,-.4E-7,0
ONEWEB-0560,2023-004F,2026-06-27T03:59:08.768544,13.18687316,.00017885,87.9168,333.4726,103.9211,256.2120,0,U,55145,999,17102,-.46699861E-4,-.6E-7,0
ONEWEB-0565,2023-004G,2026-06-27T03:49:27.346656,13.18685740,.00022079,87.9158,333.5010,101.5006,258.6374,0,U,55146,999,17101,.15300315E-3,.73E-6,0
ONEWEB-0567,2023-004H,2026-06-27T03:39:44.589888,13.18686067,.0002075,87.9166,333.4874,103.5188,256.6175,0,U,55147,999,17101,-.316319E-6,.13E-6,0
ONEWEB-0569,2023-004J,2026-06-27T03:21:14.168448,13.13469829,.00020912,87.8971,318.2386,123.8118,236.3211,0,U,55148,999,17148,.38324165E-3,.153E-5,0
ONEWEB-0570,2023-004K,2026-06-27T03:27:35.557920,13.18686326,.00022472,87.9166,333.4867,91.1034,269.0355,0,U,55149,999,17100,.36085718E-4,.27E-6,0
ONEWEB-0571,2023-004L,2026-06-26T23:39:21.384288,13.18684884,.00027252,87.9167,333.5178,118.5388,241.6019,0,U,55150,999,17099,-.15377874E-3,-.48E-6,0
